SL-16 R/B               
1 26070U 00006B   22007.54721470 -.00000180  00000+0 -67562-4 0  9992
2 26070  71.0023  57.3581 0017645 331.0984  28.9160 14.15473306133142
MTI                     
1 26102U 00014A   22007.28393458  .00025777  00000+0  21888-3 0  9996
2 26102  97.4639 290.5528 0002395 281.2293  78.8687 15.69628346213211
TITAN 4B R/B            
1 26474U 00047B   22007.57426010  .00000401  00000+0  44962-4 0  9993
2 26474  67.9943 308.7481 0060664 289.8825  69.5786 14.96365991164373
ENVISAT                 
1 27386U 02009A   22007.60307709  .00000052  00000+0  30552-4 0  9995
2 27386  98.1668 356.4138 0001240  84.6542  28.5906 14.38066658 40340
IDEFIX & ARIANE 42P R/B 
1 27422U 02021B   22007.44620405  .00000047  00000+0  35164-4 0  9991
2 27422  98.4308 318.4600 0012209 356.9578   3.1528 14.29352018 26451
AQUA                    
1 27424U 02022A   22007.49185316  .00000179  00000+0  49923-4 0  9990
2 27424  98.2320 311.0899 0001609  59.3693 103.4034 14.57109405 46749
CZ-4B R/B               
1 27432U 02024C   22007.58377269 -.00000030  00000+0  83429-5 0  9998
2 27432  99.0757  30.2986 0050589  11.9509 148.6508 14.14121702 14085
MIDORI II (ADEOS-II)    
1 27597U 02056A   22007.55123369  .00000071  00000+0  46597-4 0  9990
2 27597  98.5897 314.0091 0001936 103.1919 256.9478 14.27544469993007
H-2A R/B                
1 27601U 02056E   22007.58200962 -.00000019  00000+0  78803-5 0  9993
2 27601  98.1804  23.3615 0072535  22.1131  86.3635 14.32027919996148
CZ-4B R/B               
1 28059U 03049C   22007.54993992  .00000078  00000+0  30503-4 0  9990
2 28059  98.5088 301.9601 0049616 197.7619 162.1844 14.52699626965455
CZ-2C R/B               
1 28222U 04012C   22007.52608726  .00000907  00000+0  56616-4 0  9993
2 28222  97.7541 345.7412 0044646 242.6027 231.3269 15.11402950971915
SL-16 R/B               
1 28353U 04021B   22007.58619902  .00000115  00000+0  85036-4 0  9991
2 28353  70.9986 185.6772 0005895 212.2799 147.7963 14.14256789907603
CZ-4B R/B               
1 28415U 04035C   22007.57764787  .00000538  00000+0  38790-4 0  9990
2 28415  97.5400  51.3922 0050223 208.4760 151.3722 15.07396027949359
CZ-2C R/B               
1 28480U 04046B   22007.57819169  .00000057  00000+0  36823-4 0  9990
2 28480  98.0540   8.1324 0141387 339.4151 128.8289 14.25778744891519
ARIANE 5 R/B            
1 28499U 04049H   22007.58741176  .00000174  00000+0  28899-4 0  9990
2 28499  98.0837 123.0884 0090833 233.6736 136.2601 14.80213919920286
CZ-2D R/B               
1 28738U 05024B   22007.52814165  .00000913  00000+0  55448-4 0  9994
2 28738  97.3551  21.3007 0012290  23.5741 336.6051 15.12824216907416
SUZAKU (ASTRO-EII)      
1 28773U 05025A   22007.17184220  .00002074  00000+0  91660-4 0  9993
2 28773  31.3807 274.7909 0004366 181.4045 178.6591 15.19278830910462
ALOS (DAICHI)           
1 28931U 06002A   22007.52227654  .00000296  00000+0  66590-4 0  9991
2 28931  97.9135 338.6303 0002111  81.9329 278.2113 14.62958337850894
H-2A R/B                
1 28932U 06002B   22007.58386231  .00000892  00000+0  86606-4 0  9997
2 28932  98.3125  41.1823 0086469 259.0888 214.4891 14.92871531866039
AKARI (ASTRO-F)         
1 28939U 06005A   22007.57593214  .00005512  00000+0  12593-3 0  9994
2 28939  98.2200  60.7523 0082344 125.9998 234.8916 15.39812420868281
RESURS-DK 1             
1 29228U 06021A   22007.56355299  .00000259  00000+0  26605-4 0  9995
2 29228  69.9341 178.9116 0007350 293.1203  66.9183 15.02856516858200
GENESIS 1               
1 29252U 06029A   22007.39430125  .00000852  00000+0  48512-4 0  9993
2 29252  64.5195 239.4016 0059019 286.5012  72.9632 15.19301135854493
CZ-4B R/B               
1 29507U 06046C   22007.53055846  .00000165  00000+0  17447-4 0  9994
2 29507  97.7533  38.1954 0047649  49.5594 310.9770 15.01279980830724
CZ-2C R/B               
1 31114U 07010B   22007.48038304  .00000016  00000+0  25624-4 0  9998
2 31114  98.2280 191.8449 0060550  48.3152 312.3185 14.19385932763729
COSMO-SKYMED 1          
1 31598U 07023A   22007.45672811 -.00000213  00000+0 -20215-4 0  9994
2 31598  97.8809 193.4540 0001448  92.7249 267.4154 14.82151216789111
GENESIS 2               
1 31789U 07028A   22007.48652057  .00001255  00000+0  70375-4 0  9991
2 31789  64.4963 281.8802 0029304 348.1002  11.9424 15.18310524801456
COSMOS 2428             
1 31792U 07029A   22007.59252501  .00000284  00000+0  17952-3 0  9990
2 31792  70.9261 157.2713 0010460 287.1326  72.8649 14.12435141749131
SL-16 R/B               
1 31793U 07029B   22007.57636984 -.00000168  00000+0 -62615-4 0  9990
2 31793  70.9766 130.8251 0002327 266.2975 172.1360 14.14462903750119
KORONAS-FOTON           
1 33504U 09003A   22007.48934687  .00001047  00000+0  52027-4 0  9998
2 33504  82.4410  16.3603 0020429 107.8879 252.4584 15.16356977713564
H-2A R/B                
1 38341U 12025E   22007.51900048  .00000309  00000+0  43398-4 0  9999
2 38341  98.5182 211.9542 0054649 202.9850 156.8916 14.84381561521771
CUSAT 2 & FALCON 9 R/B  
1 39271U 13055G   22007.53420104  .00005149  00000+0  11819-3 0  9997
2 39271  80.9640  11.3208 0552382 249.1284 104.9948 14.56645767433300
CZ-2C R/B               
1 39364U 13059B   22007.40751596  .00002241  00000+0  79805-4 0  9992
2 39364  97.1861  66.2649 0045161 184.9027 175.1778 15.29012302455588
SL-4 R/B                
1 39679U 14021B   22007.41063278  .00000345  00000+0  34348-4 0  9991
2 39679  51.6162 345.2245 0168897 118.7458 243.0598 15.07508997424816
ALOS-2                  
1 39766U 14029A   22007.50634182 -.00000048  00000+0  49211-6 0  9992
2 39766  97.9223 106.9522 0001464  88.5802 271.5608 14.79470749411834
CZ-2C R/B               
1 40306U 14071B   22007.45766915  .00007966  00000+0  13278-3 0  9991
2 40306  97.4019 334.9748 0010689 244.4077 115.6071 15.52217430401854
SL-27 R/B               
1 40354U 14084B   22007.53688517  .00001947  00000+0  45864-4 0  9998
2 40354  74.7377 289.4792 0036534 193.1012 166.9257 15.41986846395782
YAOGAN 29               
1 41038U 15069A   22007.51278569  .00000118  00000+0  22306-4 0  9997
2 41038  98.0494   7.0524 0001134 116.3542 243.7785 14.80559692330473
ASTRO-H (HITOMI)        
1 41337U 16012A   22007.27369478  .00000481  00000+0  31844-4 0  9991
2 41337  31.0066   2.4692 0012298 292.9511  66.9827 14.99010407322910
HXMT (HUIYAN)           
1 42758U 17034A   22007.47476112  .00000662  00000+0  53976-4 0  9991
2 42758  43.0154 152.9910 0008831 346.0634 120.4147 15.09560024251849
CZ-2C R/B               
1 43521U 18054D   22007.41772637  .00001297  00000+0  70574-4 0  9996
2 43521  35.1530 271.3174 0079856  99.4377 261.5375 15.12071372195286
AEOLUS                  
1 43600U 18066A   22007.56161919  .00040808  00000+0  16277-3 0  9998
2 43600  96.7126  16.1556 0006882  98.7657 261.4396 15.86481810195611
SAOCOM 1A               
1 43641U 18076A   22007.46508462 -.00000345  00000+0 -36773-4 0  9999
2 43641  97.8835 196.4642 0001508  82.5851 277.5384 14.82146693175884
SAOCOM 1B               
1 46265U 20059A   22007.56374919  .00000106  00000+0  19836-4 0  9991
2 46265  97.8835 195.6317 0001495  82.8813 277.2574 14.82158417 73292
SL-4 R/B                
1 47547U 21008B   22007.48045298  .00186821  53046-5  38599-3 0  9995
2 47547  67.1179 130.0242 0197505 128.7911 233.1091 15.72894746 51792
TIANHE                  
1 48274U 21035A   22007.35252559  .00021451  00000+0  25458-3 0  9992
2 48274  41.4689 118.7822 0004431 354.7795  45.6306 15.60668175 39629
